{
  "type": "FeatureCollection",
  "features": [
    {
      "type": "Feature",
      "properties": {
        "norad_id": 35233,
        "name": "FENGYUN 1C DEB",
        "group": "fengyun-1c-debris",
        "lat": 72.70981055227564,
        "lon": 56.56262120028445,
        "alt_km": 774.6446936138454,
        "timestamp": "2025-12-13T03:42:11.560763+00:00",
        "meta_object_name": "FENGYUN 1C DEB",
        "meta_object_id": "1999-025DQR",
        "meta_epoch": "2025-12-10T17:47:35.210400",
        "meta_mean_motion": 14.41825233,
        "meta_eccentricity": 0.00413015,
        "meta_inclination": 98.7698,
        "meta_ra_of_asc_node": 83.8157,
        "meta_arg_of_pericenter": 267.1274,
        "meta_mean_anomaly": 250.4527,
        "meta_ephemeris_type": 0,
        "meta_classification_type": "U",
        "meta_norad_cat_id": 35233,
        "meta_element_set_no": 999,
        "meta_rev_at_epoch": 91147,
        "meta_bstar": 0.0029492256,
        "meta_mean_motion_dot": 9.705e-05,
        "meta_mean_motion_ddot": 0,
        "tle_line1": "1 35233U 99025DQR 25344.74137975  .00009705  00000+0  29492-2 0  9990",
        "tle_line2": "2 35233  98.7698  83.8157 0041301 267.1274 250.4527 14.41825233911475"
      },
      "geometry": {
        "type": "Point",
        "coordinates": [
          56.56262120028445,
          72.70981055227564
        ]
      }
    },
    {
      "type": "Feature",
      "properties": {
        "norad_id": 35234,
        "name": "FENGYUN 1C DEB",
        "group": "fengyun-1c-debris",
        "lat": -53.02056846974521,
        "lon": -175.7747524238697,
        "alt_km": 619.7981371513952,
        "timestamp": "2025-12-13T03:42:11.560773+00:00",
        "meta_object_name": "FENGYUN 1C DEB",
        "meta_object_id": "1999-025DQS",
        "meta_epoch": "2025-12-09T08:30:33.361920",
        "meta_mean_motion": 14.65521063,
        "meta_eccentricity": 0.00996776,
        "meta_inclination": 98.0687,
        "meta_ra_of_asc_node": 11.3531,
        "meta_arg_of_pericenter": 273.2554,
        "meta_mean_anomaly": 85.725,
        "meta_ephemeris_type": 0,
        "meta_classification_type": "U",
        "meta_norad_cat_id": 35234,
        "meta_element_set_no": 999,
        "meta_rev_at_epoch": 94306,
        "meta_bstar": 0.00084730707,
        "meta_mean_motion_dot": 4.891e-05,
        "meta_mean_motion_ddot": 0,
        "tle_line1": "1 35234U 99025DQS 25343.35455280  .00004891  00000+0  84731-3 0  9998",
        "tle_line2": "2 35234  98.0687  11.3531 0099677 273.2554  85.7250 14.65521063943069"
      },
      "geometry": {
        "type": "Point",
        "coordinates": [
          -175.7747524238697,
          -53.02056846974521
        ]
      }
    },
    {
      "type": "Feature",
      "properties": {
        "norad_id": 35239,
        "name": "FENGYUN 1C DEB",
        "group": "fengyun-1c-debris",
        "lat": 58.55639082758875,
        "lon": -16.698577226731246,
        "alt_km": 1053.4961108309399,
        "timestamp": "2025-12-13T03:42:11.560784+00:00",
        "meta_object_name": "FENGYUN 1C DEB",
        "meta_object_id": "1999-025DQX",
        "meta_epoch": "2025-12-11T09:02:36.536928",
        "meta_mean_motion": 13.69211906,
        "meta_eccentricity": 0.02296897,
        "meta_inclination": 99.2659,
        "meta_ra_of_asc_node": 146.1065,
        "meta_arg_of_pericenter": 13.9331,
        "meta_mean_anomaly": 346.8014,
        "meta_ephemeris_type": 0,
        "meta_classification_type": "U",
        "meta_norad_cat_id": 35239,
        "meta_element_set_no": 999,
        "meta_rev_at_epoch": 58112,
        "meta_bstar": 0.001325836,
        "meta_mean_motion_dot": 1.34e-05,
        "meta_mean_motion_ddot": 0,
        "tle_line1": "1 35239U 99025DQX 25345.37681177  .00001340  00000+0  13258-2 0  9994",
        "tle_line2": "2 35239  99.2659 146.1065 0229689  13.9331 346.8014 13.69211906581124"
      },
      "geometry": {
        "type": "Point",
        "coordinates": [
          -16.698577226731246,
          58.55639082758875
        ]
      }
    },
    {
      "type": "Feature",
      "properties": {
        "norad_id": 35240,
        "name": "FENGYUN 1C DEB",
        "group": "fengyun-1c-debris",
        "lat": 27.95433067142529,
        "lon": -55.4079351991441,
        "alt_km": 830.3995709996098,
        "timestamp": "2025-12-13T03:42:11.560793+00:00",
        "meta_object_name": "FENGYUN 1C DEB",
        "meta_object_id": "1999-025DQY",
        "meta_epoch": "2025-12-10T19:53:33.388224",
        "meta_mean_motion": 14.23273477,
        "meta_eccentricity": 0.00460429,
        "meta_inclination": 99.3521,
        "meta_ra_of_asc_node": 307.1402,
        "meta_arg_of_pericenter": 157.1432,
        "meta_mean_anomaly": 203.1807,
        "meta_ephemeris_type": 0,
        "meta_classification_type": "U",
        "meta_norad_cat_id": 35240,
        "meta_element_set_no": 999,
        "meta_rev_at_epoch": 93137,
        "meta_bstar": 0.0028626326,
        "meta_mean_motion_dot": 6.509e-05,
        "meta_mean_motion_ddot": 0,
        "tle_line1": "1 35240U 99025DQY 25344.82885866  .00006509  00000+0  28626-2 0  9993",
        "tle_line2": "2 35240  99.3521 307.1402 0046042 157.1432 203.1807 14.23273477931375"
      },
      "geometry": {
        "type": "Point",
        "coordinates": [
          -55.4079351991441,
          27.95433067142529
        ]
      }
    },
    {
      "type": "Feature",
      "properties": {
        "norad_id": 35241,
        "name": "FENGYUN 1C DEB",
        "group": "fengyun-1c-debris",
        "lat": -57.850752633289936,
        "lon": -69.82269084910524,
        "alt_km": 899.0705800923724,
        "timestamp": "2025-12-13T03:42:11.560804+00:00",
        "meta_object_name": "FENGYUN 1C DEB",
        "meta_object_id": "1999-025DQZ",
        "meta_epoch": "2025-12-11T05:44:22.817472",
        "meta_mean_motion": 14.01929609,
        "meta_eccentricity": 0.0135502,
        "meta_inclination": 98.631,
        "meta_ra_of_asc_node": 274.3792,
        "meta_arg_of_pericenter": 212.8639,
        "meta_mean_anomaly": 146.4048,
        "meta_ephemeris_type": 0,
        "meta_classification_type": "U",
        "meta_norad_cat_id": 35241,
        "meta_element_set_no": 999,
        "meta_rev_at_epoch": 87585,
        "meta_bstar": 0.002553102,
        "meta_mean_motion_dot": 4.174e-05,
        "meta_mean_motion_ddot": 0,
        "tle_line1": "1 35241U 99025DQZ 25345.23915298  .00004174  00000+0  25531-2 0  9991",
        "tle_line2": "2 35241  98.6310 274.3792 0135502 212.8639 146.4048 14.01929609875856"
      },
      "geometry": {
        "type": "Point",
        "coordinates": [
          -69.82269084910524,
          -57.850752633289936
        ]
      }
    },
    {
      "type": "Feature",
      "properties": {
        "norad_id": 35242,
        "name": "FENGYUN 1C DEB",
        "group": "fengyun-1c-debris",
        "lat": -40.074023512312955,
        "lon": 48.21116648160498,
        "alt_km": 1214.9882993950632,
        "timestamp": "2025-12-13T03:42:11.560814+00:00",
        "meta_object_name": "FENGYUN 1C DEB",
        "meta_object_id": "1999-025DRA",
        "meta_epoch": "2025-12-09T15:26:53.963232",
        "meta_mean_motion": 13.52332883,
        "meta_eccentricity": 0.0301834,
        "meta_inclination": 99.9692,
        "meta_ra_of_asc_node": 36.171,
        "meta_arg_of_pericenter": 196.4444,
        "meta_mean_anomaly": 317.6855,
        "meta_ephemeris_type": 0,
        "meta_classification_type": "U",
        "meta_norad_cat_id": 35242,
        "meta_element_set_no": 999,
        "meta_rev_at_epoch": 58085,
        "meta_bstar": 0.0024719,
        "meta_mean_motion_dot": 2.128e-05,
        "meta_mean_motion_ddot": 0,
        "tle_line1": "1 35242U 99025DRA 25343.64368013  .00002128  00000+0  24719-2 0  9996",
        "tle_line2": "2 35242  99.9692  36.1710 0301834 196.4444 317.6855 13.52332883580850"
      },
      "geometry": {
        "type": "Point",
        "coordinates": [
          48.21116648160498,
          -40.074023512312955
        ]
      }
    },
    {
      "type": "Feature",
      "properties": {
        "norad_id": 35243,
        "name": "FENGYUN 1C DEB",
        "group": "fengyun-1c-debris",
        "lat": -27.458986588940896,
        "lon": -118.5834229376994,
        "alt_km": 582.1674440885263,
        "timestamp": "2025-12-13T03:42:11.560824+00:00",
        "meta_object_name": "FENGYUN 1C DEB",
        "meta_object_id": "1999-025DRB",
        "meta_epoch": "2025-12-12T04:09:22.534272",
        "meta_mean_motion": 14.86931741,
        "meta_eccentricity": 0.00658344,
        "meta_inclination": 98.8804,
        "meta_ra_of_asc_node": 64.981,
        "meta_arg_of_pericenter": 258.8015,
        "meta_mean_anomaly": 100.5793,
        "meta_ephemeris_type": 0,
        "meta_classification_type": "U",
        "meta_norad_cat_id": 35243,
        "meta_element_set_no": 999,
        "meta_rev_at_epoch": 90992,
        "meta_bstar": 0.0034254016,
        "meta_mean_motion_dot": 0.00031923,
        "meta_mean_motion_ddot": 0,
        "tle_line1": "1 35243U 99025DRB 25346.17317748  .00031923  00000+0  34254-2 0  9997",
        "tle_line2": "2 35243  98.8804  64.9810 0065834 258.8015 100.5793 14.86931741909927"
      },
      "geometry": {
        "type": "Point",
        "coordinates": [
          -118.5834229376994,
          -27.458986588940896
        ]
      }
    }
  ]
}